APRIZESAT 2             
1 28366U 04025A   26184.91440785  .00000275  00000+0  98487-4 0  9998
2 28366  98.1030 349.9491 0105156 198.9223 160.8046 14.38043501154047
SAUDICOMSAT 1           
1 28369U 04025D   26185.75265677  .00000573  00000+0  14231-3 0  9994
2 28369  98.5771 196.3581 0031500 331.7707  28.1781 14.55488986166689
SAUDICOMSAT 2           
1 28370U 04025E   26185.03170394  .00000269  00000+0  80818-4 0  9995
2 28370  98.6639 197.7542 0054858 207.6478 152.1795 14.49990206162544
APRIZESAT 1             
1 28372U 04025G   26184.83579126  .00000341  00000+0  95785-4 0  9990
2 28372  98.6304 196.0144 0045747 104.2953 256.3328 14.51787039164320
NANOSAT-1               
1 28493U 04049B   26184.79879215  .00001225  00000+0  16856-3 0  9990
2 28493  98.2298 321.8678 0002985 225.9048 134.1918 14.80193523157900
SAUDICOMSAT 7           
1 31119U 07012C   26185.17484396  .00000677  00000+0  12979-3 0  9999
2 31119  98.3788 159.6549 0056466 142.1645 218.3548 14.66127864 24922
SAUDICOMSAT 6           
1 31121U 07012E   26184.85148667  .00000563  00000+0  11734-3 0  9996
2 31121  98.4107 152.6789 0070381 275.0888  84.2283 14.62576721 22624
SAUDICOMSAT 5           
1 31124U 07012H   26185.87418760  .00001008  00000+0  18123-3 0  9990
2 31124  98.3500 161.1120 0048661  70.5238 290.1214 14.68182931 26190
SAUDICOMSAT 3           
1 31125U 07012J   26185.66794474  .00001311  00000+0  22136-3 0  9993
2 31125  98.3154 161.4486 0039069 358.8257   1.2851 14.70739109 27398
SAUDICOMSAT 4           
1 31127U 07012L   26185.64522205  .00000694  00000+0  13709-3 0  9993
2 31127  98.3994 158.5727 0062816 202.7943 157.0468 14.64529613 23842
APRIZESAT 4             
1 35684U 09041D   26185.92402970  .00001013  00000+0  12723-3 0  9997
2 35684  98.1407 261.5978 0041912 263.8399  95.8039 14.83904708913991
APRIZESAT 3             
1 35686U 09041F   26185.68673844  .00001745  00000+0  15458-3 0  9992
2 35686  98.2081 339.7511 0061704  10.3583 349.8892 14.96290082918995
S-NET D                 
1 43186U 18014G   26185.48271858  .00009180  00000+0  46959-3 0  9994
2 43186  97.5342  90.1654 0006988 330.2368  29.8466 15.16844458461388
S-NET B                 
1 43187U 18014H   26185.16466080  .00006505  00000+0  33423-3 0  9993
2 43187  97.5348  89.8363 0007562 325.2617  34.8121 15.16805289461335
S-NET A                 
1 43188U 18014J   26185.48150044  .00009299  00000+0  47549-3 0  9996
2 43188  97.5358  90.3636 0007418 325.0367  35.0378 15.16853371461384
S-NET C                 
1 43189U 18014K   26185.69638399  .00008996  00000+0  46057-3 0  9990
2 43189  97.5376  90.6544 0008609 314.0409  46.0114 15.16809075459967
SALSAT                  
1 46495U 20068K   26185.73936093  .00013612  00000+0  46989-3 0  9997
2 46495  97.8855 189.8756 0008222 233.3566 126.6918 15.30063013318049
OOV-CUBE (TUBSAT-30)    
1 60240U 24128F   26185.35527502  .00002684  00000+0  21119-3 0  9996
2 60240  61.9937 165.7051 0042468 137.5285 222.9106 15.02839523108693
LPNTSAT-001 (IOD-1)     
1 68408U 26065A   26185.40661808  .00003501  00000+0  17196-3 0  9995
2 68408  97.3994  65.5512 0014978 308.3428  51.6459 15.18627871 14876
